OBJECT_NAME,OBJECT_ID,EPOCH,MEAN_MOTION,ECCENTRICITY,INCLINATION,RA_OF_ASC_NODE,ARG_OF_PERICENTER,MEAN_ANOMALY,EPHEMERIS_TYPE,CLASSIFICATION_TYPE,NORAD_CAT_ID,ELEMENT_SET_NO,REV_AT_EPOCH,BSTAR,MEAN_MOTION_DOT,MEAN_MOTION_DDOT
BEIDOU-2 G3,2010-024A,2026-06-30T16:09:55.819008,1.00271065,.0008004,4.5467,61.4609,357.0752,182.3578,0,U,36590,999,5890,0,-.128E-5,0
BADR-5,2010-025A,2026-06-30T20:10:38.689248,1.00269343,.0004235,0.0520,122.0305,65.8468,64.1639,0,U,36592,999,5335,0,.164E-5,0
COMS 1,2010-032A,2026-06-30T19:18:00.053856,0.99168462,.0011864,4.8382,75.1972,13.5533,138.8109,0,U,36744,999,5122,0,-.44E-6,0
ARABSAT-5A,2010-032B,2026-06-30T20:10:38.689248,1.00273805,.000571,0.0793,56.8689,58.6773,136.5118,0,U,36745,999,5878,0,.164E-5,0
ECHOSTAR 15,2010-034A,2026-06-30T14:31:09.306912,1.00273706,.0002148,0.0405,282.4921,166.2354,288.9318,0,U,36792,999,5845,0,.1E-6,0
BEIDOU-2 IGSO-1,2010-036A,2026-06-30T08:59:38.680800,1.00268449,.00588274,54.3057,162.8407,225.1163,132.8817,0,U,36828,999,5822,0,-.82E-6,0
NILESAT 201,2010-037A,2026-06-29T15:48:01.756224,1.00271661,.0005321,0.0376,117.2796,5.7081,24.7564,0,U,36830,999,5850,0,-.47E-6,0
RASCOM-QAF 1R,2010-037B,2026-06-30T19:13:22.999296,1.00270900,.0006488,0.0028,105.2946,348.4665,116.3503,0,U,36831,999,5844,0,.29E-6,0
AEHF-1 (USA 214),2010-039A,2026-06-30T20:10:38.689248,1.00268568,.0004224,8.2526,67.8662,28.0355,155.6367,0,U,36868,999,5379,0,.152E-5,0
XM-5,2010-053A,2026-06-30T02:29:38.810688,1.00272097,.00025001,0.0699,268.8148,286.8802,4.7004,0,U,37185,999,5761,0,-.12E-6,0
BSAT-3B,2010-056B,2026-06-30T18:01:16.367232,1.00270347,.000225,0.0659,236.5817,290.0626,132.3280,0,U,37207,999,5223,0,-.339E-5,0
BEIDOU-2 G4,2010-057A,2026-06-30T15:17:11.801760,1.00271585,.0004811,3.6793,68.8718,190.1200,48.9890,0,U,37210,999,5742,0,-.105E-5,0
SKYTERRA 1,2010-061A,2026-06-30T14:21:15.965280,1.00269841,.0002376,5.1524,50.8321,33.3282,308.5188,0,U,37218,999,5732,0,-.111E-5,0
HYLAS 1,2010-065A,2026-06-30T07:17:51.718848,1.00272596,.00010436,5.6751,72.8623,340.0885,348.6881,0,U,37237,999,701,0,.96E-6,0
INTELSAT 17 (IS-17),2010-065B,2026-06-30T19:31:22.751328,1.00270464,.0002525,0.0070,227.4444,234.5720,175.6886,0,U,37238,999,5338,0,.9E-7,0
BEIDOU-2 IGSO-2,2010-068A,2026-06-30T16:18:05.669856,1.00279341,.0056566,47.5224,271.6646,213.8845,145.9362,0,U,37256,999,5693,0,-.187E-5,0
EUTELSAT KA-SAT 9A,2010-069A,2026-06-29T15:52:38.813376,1.00251079,.00044404,0.0604,11.5797,130.3911,22.9217,0,U,37258,999,4413,0,.69E-6,0
HISPASAT 30W-5,2010-070A,2026-06-30T19:03:58.968000,1.00272115,.0005848,0.0378,108.9010,3.6207,62.3351,0,U,37264,999,5332,0,-.205E-5,0
KOREASAT 6,2010-070B,2026-06-30T18:15:30.001824,1.00272354,.00027,0.0176,35.5670,74.1321,242.8823,0,U,37265,999,5690,0,-.101E-5,0
BEIDOU-2 IGSO-3,2011-013A,2026-06-29T12:55:31.508832,1.00265262,.00352011,62.4244,40.0349,183.8161,354.9022,0,U,37384,999,5578,0,-.164E-5,0
INTELSAT 28 (IS-28),2011-016A,2026-06-30T19:03:29.015712,1.00270484,.0004022,1.8397,82.4677,16.8922,73.6250,0,U,37392,999,5342,0,-.216E-5,0
YAHSAT 1A,2011-016B,2026-06-30T04:03:32.133888,1.00269168,.00034983,0.0228,36.2688,71.1969,284.1558,0,U,37393,999,4253,0,0,0
SBIRS GEO-1 (USA 230),2011-019A,2026-06-30T19:26:54.494016,1.00272165,.0001872,4.5655,53.1166,39.0449,170.2334,0,U,37481,999,5553,0,.107E-5,0
TELSTAR 14R,2011-021A,2026-06-30T18:54:37.367136,1.00271431,.0002369,0.0512,81.5054,353.0218,64.9907,0,U,37602,999,5597,0,-.269E-5,0
GSAT-8,2011-022A,2026-06-30T10:54:57.337920,1.00274337,.00016818,2.1638,81.6735,178.4527,237.2308,0,U,37605,999,5335,0,.93E-6,0
ST-2,2011-022B,2026-06-30T19:49:21.525312,1.00270060,.0001803,0.0266,45.6938,66.0159,192.5483,0,U,37606,999,5541,0,0,0
ZHONGXING-10,2011-026A,2026-06-30T20:07:38.732736,1.00272356,.0003816,1.0815,84.0625,9.9106,212.3723,0,U,37677,999,5513,0,-.179E-5,0
SES-3,2011-035A,2026-06-30T17:00:16.624800,1.00272456,.0002457,1.3601,82.9545,6.9246,340.9646,0,U,37748,999,5472,0,-.92E-6,0
KAZSAT-2,2011-035B,2026-06-30T09:21:17.119872,1.00274357,.00017167,0.0138,73.4446,77.8892,353.9364,0,U,37749,999,5353,0,-.187E-5,0
BEIDOU-2 IGSO-4,2011-038A,2026-06-30T17:22:46.089120,1.00282941,.0159646,54.6038,165.5522,231.3920,236.4479,0,U,37763,999,5478,0,.16E-6,0
ASTRA 1N,2011-041A,2026-06-30T19:18:00.053856,1.00272154,.000594,0.0872,42.3043,55.9656,129.2708,0,U,37775,999,4466,0,.13E-5,0
BSAT-3C (JCSAT-110R),2011-041B,2026-06-30T18:01:16.367232,1.00269993,.0000613,0.0159,347.6769,166.3261,145.0769,0,U,37776,999,5060,0,-.34E-5,0
